EUTELSAT 21B            
1 38992U 12062B   25290.84447691  .00000122  00000+0  00000+0 0  9996
2 38992   0.0853  33.8981 0002836 183.6701 134.6440  1.00274302 47390
EUTELSAT 70B            
1 39020U 12069A   25290.78276993 -.00000052  00000+0  00000+0 0  9997
2 39020   0.0679 349.3741 0004248 217.1150 172.3617  1.00271074 47071
EUTELSAT 117 WEST A     
1 39122U 13012A   25290.39905888 -.00000023  00000+0  00000+0 0  9996
2 39122   0.0051 332.6258 0002720 234.5703 205.8271  1.00271093 45994
EUTELSAT 7B             
1 39163U 13022A   25290.77020322  .00000040  00000+0  00000+0 0  9993
2 39163   0.0743  23.3703 0001853 284.2643   3.1648  1.00273226 45523
EXPRESS-AT1             
1 39612U 14010A   25290.82753125  .00000000  00000+0  00000+0 0  9996
2 39612   0.0219 212.8863 0000118  61.0668 106.5313  1.00271664 42385
EXPRESS-AT2             
1 39613U 14010B   25285.23079185 -.00000290  00000+0  00000+0 0  9995
2 39613   0.0174 228.3626 0000312 164.2420 211.3956  1.00268655 42017
EUTELSAT 3B             
1 39773U 14030A   25290.84083689  .00000011  00000+0  00000+0 0  9991
2 39773   0.0681 356.7183 0004490 204.3280 131.3635  1.00270604 41631
EUTELSAT 115 WEST B     
1 40425U 15010B   25290.67473030 -.00000035  00000+0  00000+0 0  9997
2 40425   0.0101  74.2517 0000138  73.2123   6.9984  1.00274363 38963
